KUIPER-00179            
1 67136U 25301D   25361.27874330  .00026269  00000+0  73935-3 0  9999
2 67136  51.8745  54.9461 0002935  87.3676 272.7646 15.36287756  2781
KUIPER-00181            
1 67137U 25301E   25361.22748212  .00034369  00000+0  10182-2 0  9998
2 67137  51.8645  55.3528 0010066 147.0262 213.1353 15.34496561  2754
KUIPER-00183            
1 67138U 25301F   25361.22987672  .00032057  00000+0  96079-3 0  9996
2 67138  51.8622  55.3678 0011215 151.8745 208.2848 15.34153831  2767
KUIPER-00184            
1 67139U 25301G   25361.22671351  .00023629  00000+0  70695-3 0  9992
2 67139  51.8640  55.3517 0007957 144.7890 215.3622 15.34406380  2871
KUIPER-00186            
1 67140U 25301H   25361.22304690  .00035198  00000+0  10238-2 0  9993
2 67140  51.8688  55.3254 0007574 133.2555 226.9064 15.35083330  2593
KUIPER-00187            
1 67141U 25301J   25361.28239105  .00022414  00000+0  64092-3 0  9993
2 67141  51.8718  54.9735 0004399 119.2586 240.8840 15.35882015  2603
KUIPER-00188            
1 67142U 25301K   25361.22373578  .00023191  00000+0  68161-3 0  9995
2 67142  51.8700  55.3286 0007410 138.9893 221.1651 15.34982136  2591
KUIPER-00191            
1 67143U 25301L   25361.22207143  .00031256  00000+0  90708-3 0  9993
2 67143  51.8677  55.3187 0006764 135.8074 224.3453 15.35219059  2620
KUIPER-00196            
1 67144U 25301M   25361.28078508  .00007000  00000+0  20688-3 0  9991
2 67144  51.8740  54.9606 0003961 110.8141 249.3270 15.36061213  2607
KUIPER-00204            
1 67145U 25301N   25361.27712093  .00016507  00000+0  46478-3 0  9992
2 67145  51.8746  54.9294 0002099  76.6318 283.4902 15.36585089  2718
KUIPER-00210            
1 67146U 25301P   25361.22926124  .00035483  00000+0  10593-2 0  9992
2 67146  51.8607  55.3628 0010571 153.5483 206.6044 15.34235315  2764
KUIPER-00221            
1 67147U 25301Q   25361.28306335  .00022250  00000+0  63830-3 0  9996
2 67147  51.8725  54.9767 0005068 116.3773 243.7734 15.35782669  2600
