CCSDS_OMM_VERS = 2.0
CREATION_DATE  = 
ORIGINATOR     = 

OBJECT_NAME    = KUIPER-00179
OBJECT_ID      = 2025-301D
CENTER_NAME    = EARTH
REF_FRAME      = TEME
TIME_SYSTEM    = UTC
MEAN_ELEMENT_THEORY = SGP/SGP4

EPOCH          = 2025-12-27T06:41:23.421120
MEAN_MOTION    = 15.36287756
ECCENTRICITY   = .00029353
INCLINATION    = 51.8745
RA_OF_ASC_NODE = 54.9461
ARG_OF_PERICENTER = 87.3676
MEAN_ANOMALY   = 272.7646

EPHEMERIS_TYPE = 0
CLASSIFICATION_TYPE = U
NORAD_CAT_ID   = 67136
ELEMENT_SET_NO = 999
REV_AT_EPOCH   = 278
BSTAR          = .73935322E-3
MEAN_MOTION_DOT = .26269E-3
MEAN_MOTION_DDOT = 0

CCSDS_OMM_VERS = 2.0
CREATION_DATE  = 
ORIGINATOR     = 

OBJECT_NAME    = KUIPER-00181
OBJECT_ID      = 2025-301E
CENTER_NAME    = EARTH
REF_FRAME      = TEME
TIME_SYSTEM    = UTC
MEAN_ELEMENT_THEORY = SGP/SGP4

EPOCH          = 2025-12-27T05:27:34.455168
MEAN_MOTION    = 15.34496561
ECCENTRICITY   = .00100665
INCLINATION    = 51.8645
RA_OF_ASC_NODE = 55.3528
ARG_OF_PERICENTER = 147.0262
MEAN_ANOMALY   = 213.1353

EPHEMERIS_TYPE = 0
CLASSIFICATION_TYPE = U
NORAD_CAT_ID   = 67137
ELEMENT_SET_NO = 999
REV_AT_EPOCH   = 275
BSTAR          = .1018204E-2
MEAN_MOTION_DOT = .34369E-3
MEAN_MOTION_DDOT = 0

CCSDS_OMM_VERS = 2.0
CREATION_DATE  = 
ORIGINATOR     = 

OBJECT_NAME    = KUIPER-00183
OBJECT_ID      = 2025-301F
CENTER_NAME    = EARTH
REF_FRAME      = TEME
TIME_SYSTEM    = UTC
MEAN_ELEMENT_THEORY = SGP/SGP4

EPOCH          = 2025-12-27T05:31:01.348608
MEAN_MOTION    = 15.34153831
ECCENTRICITY   = .00112159
INCLINATION    = 51.8622
RA_OF_ASC_NODE = 55.3678
ARG_OF_PERICENTER = 151.8745
MEAN_ANOMALY   = 208.2848

EPHEMERIS_TYPE = 0
CLASSIFICATION_TYPE = U
NORAD_CAT_ID   = 67138
ELEMENT_SET_NO = 999
REV_AT_EPOCH   = 276
BSTAR          = .96078923E-3
MEAN_MOTION_DOT = .32057E-3
MEAN_MOTION_DDOT = 0

CCSDS_OMM_VERS = 2.0
CREATION_DATE  = 
ORIGINATOR     = 

OBJECT_NAME    = KUIPER-00184
OBJECT_ID      = 2025-301G
CENTER_NAME    = EARTH
REF_FRAME      = TEME
TIME_SYSTEM    = UTC
MEAN_ELEMENT_THEORY = SGP/SGP4

EPOCH          = 2025-12-27T05:26:28.047264
MEAN_MOTION    = 15.34406380
ECCENTRICITY   = .00079576
INCLINATION    = 51.8640
RA_OF_ASC_NODE = 55.3517
ARG_OF_PERICENTER = 144.7890
MEAN_ANOMALY   = 215.3622

EPHEMERIS_TYPE = 0
CLASSIFICATION_TYPE = U
NORAD_CAT_ID   = 67139
ELEMENT_SET_NO = 999
REV_AT_EPOCH   = 287
BSTAR          = .70694686E-3
MEAN_MOTION_DOT = .23629E-3
MEAN_MOTION_DDOT = 0

CCSDS_OMM_VERS = 2.0
CREATION_DATE  = 
ORIGINATOR     = 

OBJECT_NAME    = KUIPER-00186
OBJECT_ID      = 2025-301H
CENTER_NAME    = EARTH
REF_FRAME      = TEME
TIME_SYSTEM    = UTC
MEAN_ELEMENT_THEORY = SGP/SGP4

EPOCH          = 2025-12-27T05:21:11.252160
MEAN_MOTION    = 15.35083330
ECCENTRICITY   = .00075748
INCLINATION    = 51.8688
RA_OF_ASC_NODE = 55.3254
ARG_OF_PERICENTER = 133.2555
MEAN_ANOMALY   = 226.9064

EPHEMERIS_TYPE = 0
CLASSIFICATION_TYPE = U
NORAD_CAT_ID   = 67140
ELEMENT_SET_NO = 999
REV_AT_EPOCH   = 259
BSTAR          = .10238264E-2
MEAN_MOTION_DOT = .35198E-3
MEAN_MOTION_DDOT = 0

CCSDS_OMM_VERS = 2.0
CREATION_DATE  = 
ORIGINATOR     = 

OBJECT_NAME    = KUIPER-00187
OBJECT_ID      = 2025-301J
CENTER_NAME    = EARTH
REF_FRAME      = TEME
TIME_SYSTEM    = UTC
MEAN_ELEMENT_THEORY = SGP/SGP4

EPOCH          = 2025-12-27T06:46:38.586720
MEAN_MOTION    = 15.35882015
ECCENTRICITY   = .00043994
INCLINATION    = 51.8718
RA_OF_ASC_NODE = 54.9735
ARG_OF_PERICENTER = 119.2586
MEAN_ANOMALY   = 240.8840

EPHEMERIS_TYPE = 0
CLASSIFICATION_TYPE = U
NORAD_CAT_ID   = 67141
ELEMENT_SET_NO = 999
REV_AT_EPOCH   = 260
BSTAR          = .64092038E-3
MEAN_MOTION_DOT = .22414E-3
MEAN_MOTION_DDOT = 0

CCSDS_OMM_VERS = 2.0
CREATION_DATE  = 
ORIGINATOR     = 

OBJECT_NAME    = KUIPER-00188
OBJECT_ID      = 2025-301K
CENTER_NAME    = EARTH
REF_FRAME      = TEME
TIME_SYSTEM    = UTC
MEAN_ELEMENT_THEORY = SGP/SGP4

EPOCH          = 2025-12-27T05:22:10.771392
MEAN_MOTION    = 15.34982136
ECCENTRICITY   = .00074103
INCLINATION    = 51.8700
RA_OF_ASC_NODE = 55.3286
ARG_OF_PERICENTER = 138.9893
MEAN_ANOMALY   = 221.1651

EPHEMERIS_TYPE = 0
CLASSIFICATION_TYPE = U
NORAD_CAT_ID   = 67142
ELEMENT_SET_NO = 999
REV_AT_EPOCH   = 259
BSTAR          = .68161116E-3
MEAN_MOTION_DOT = .23191E-3
MEAN_MOTION_DDOT = 0

CCSDS_OMM_VERS = 2.0
CREATION_DATE  = 
ORIGINATOR     = 

OBJECT_NAME    = KUIPER-00191
OBJECT_ID      = 2025-301L
CENTER_NAME    = EARTH
REF_FRAME      = TEME
TIME_SYSTEM    = UTC
MEAN_ELEMENT_THEORY = SGP/SGP4

EPOCH          = 2025-12-27T05:19:46.971552
MEAN_MOTION    = 15.35219059
ECCENTRICITY   = .00067647
INCLINATION    = 51.8677
RA_OF_ASC_NODE = 55.3187
ARG_OF_PERICENTER = 135.8074
MEAN_ANOMALY   = 224.3453

EPHEMERIS_TYPE = 0
CLASSIFICATION_TYPE = U
NORAD_CAT_ID   = 67143
ELEMENT_SET_NO = 999
REV_AT_EPOCH   = 262
BSTAR          = .9070808E-3
MEAN_MOTION_DOT = .31256E-3
MEAN_MOTION_DDOT = 0

CCSDS_OMM_VERS = 2.0
CREATION_DATE  = 
ORIGINATOR     = 

OBJECT_NAME    = KUIPER-00196
OBJECT_ID      = 2025-301M
CENTER_NAME    = EARTH
REF_FRAME      = TEME
TIME_SYSTEM    = UTC
MEAN_ELEMENT_THEORY = SGP/SGP4

EPOCH          = 2025-12-27T06:44:19.830912
MEAN_MOTION    = 15.36061213
ECCENTRICITY   = .00039612
INCLINATION    = 51.8740
RA_OF_ASC_NODE = 54.9606
ARG_OF_PERICENTER = 110.8141
MEAN_ANOMALY   = 249.3270

EPHEMERIS_TYPE = 0
CLASSIFICATION_TYPE = U
NORAD_CAT_ID   = 67144
ELEMENT_SET_NO = 999
REV_AT_EPOCH   = 260
BSTAR          = .20687636E-3
MEAN_MOTION_DOT = .7E-4
MEAN_MOTION_DDOT = 0

CCSDS_OMM_VERS = 2.0
CREATION_DATE  = 
ORIGINATOR     = 

OBJECT_NAME    = KUIPER-00204
OBJECT_ID      = 2025-301N
CENTER_NAME    = EARTH
REF_FRAME      = TEME
TIME_SYSTEM    = UTC
MEAN_ELEMENT_THEORY = SGP/SGP4

EPOCH          = 2025-12-27T06:39:03.248352
MEAN_MOTION    = 15.36585089
ECCENTRICITY   = .0002099
INCLINATION    = 51.8746
RA_OF_ASC_NODE = 54.9294
ARG_OF_PERICENTER = 76.6318
MEAN_ANOMALY   = 283.4902

EPHEMERIS_TYPE = 0
CLASSIFICATION_TYPE = U
NORAD_CAT_ID   = 67145
ELEMENT_SET_NO = 999
REV_AT_EPOCH   = 271
BSTAR          = .46477641E-3
MEAN_MOTION_DOT = .16507E-3
MEAN_MOTION_DDOT = 0

CCSDS_OMM_VERS = 2.0
CREATION_DATE  = 
ORIGINATOR     = 

OBJECT_NAME    = KUIPER-00210
OBJECT_ID      = 2025-301P
CENTER_NAME    = EARTH
REF_FRAME      = TEME
TIME_SYSTEM    = UTC
MEAN_ELEMENT_THEORY = SGP/SGP4

EPOCH          = 2025-12-27T05:30:08.171136
MEAN_MOTION    = 15.34235315
ECCENTRICITY   = .00105719
INCLINATION    = 51.8607
RA_OF_ASC_NODE = 55.3628
ARG_OF_PERICENTER = 153.5483
MEAN_ANOMALY   = 206.6044

EPHEMERIS_TYPE = 0
CLASSIFICATION_TYPE = U
NORAD_CAT_ID   = 67146
ELEMENT_SET_NO = 999
REV_AT_EPOCH   = 276
BSTAR          = .10592672E-2
MEAN_MOTION_DOT = .35483E-3
MEAN_MOTION_DDOT = 0

CCSDS_OMM_VERS = 2.0
CREATION_DATE  = 
ORIGINATOR     = 

OBJECT_NAME    = KUIPER-00221
OBJECT_ID      = 2025-301Q
CENTER_NAME    = EARTH
REF_FRAME      = TEME
TIME_SYSTEM    = UTC
MEAN_ELEMENT_THEORY = SGP/SGP4

EPOCH          = 2025-12-27T06:47:36.673440
MEAN_MOTION    = 15.35782669
ECCENTRICITY   = .00050686
INCLINATION    = 51.8725
RA_OF_ASC_NODE = 54.9767
ARG_OF_PERICENTER = 116.3773
MEAN_ANOMALY   = 243.7734

EPHEMERIS_TYPE = 0
CLASSIFICATION_TYPE = U
NORAD_CAT_ID   = 67147
ELEMENT_SET_NO = 999
REV_AT_EPOCH   = 260
BSTAR          = .63829804E-3
MEAN_MOTION_DOT = .2225E-3
MEAN_MOTION_DDOT = 0

